[galatea]
albedo=0.06
color=1., 0.9, 0.75
coord_func=ell_orbit
halo=true
lighting=true
name=Galatea
orbit_AscendingNode=8.642606900770915
orbit_Eccentricity=0.0009319587984705302
orbit_Epoch=2454619.50000
orbit_Inclination=0.5752509266760514
orbit_LongOfPericenter=62.03770344
orbit_MeanLongitude=62.60684554
orbit_Period=0.4294734314535237
orbit_SemiMajorAxis=62005.26343616215
orbit_visualization_period=0.4294734314535237
parent=Neptune
radius=79
rot_equator_ascending_node=213.7
rot_obliquity=15.5
rot_periode=10.3073623548845688
rot_rotation_offset=88.71
tex_halo=star16x16.png
tex_map=lune.png
type=moon

[ganymede]
albedo=0.42
atmosphere=1
color=1., 0.962, 0.871
coord_func=ganymede_special
halo=true
lighting=true
name=Ganymede
orbit_visualization_period=7.155
parent=Jupiter
radius=2634.
rot_equator_ascending_node=161.6
rot_obliquity=0.1
rot_periode=171.7092749
rot_rotation_offset=260.61
tex_halo=star16x16.png
tex_map=ganymede.png
type=moon

[halimede]
albedo=0.06
color=1., 0.9, 0.75
coord_func=ell_orbit
halo=true
lighting=true
name=Halimede
orbit_AscendingNode=188.1838751463620
orbit_Eccentricity=0.2619064927013259
orbit_Epoch=2454619.50000
orbit_Inclination=139.1947079371791
orbit_LongOfPericenter=336.4277167
orbit_MeanLongitude=76.5585497
orbit_Period=1875.169478522967
orbit_SemiMajorAxis=16563980.32137450
orbit_visualization_period=1875.169478522967
parent=Neptune
radius=62
rot_equator_ascending_node=213.7
rot_obliquity=15.5
rot_periode=1875.169478522967
rot_rotation_offset=14.9
tex_halo=star16x16.png
tex_map=lune.png
type=moon

[himalia]
albedo=0.03
color=1., 0.9, 0.75
coord_func=ell_orbit
halo=true
lighting=true
name=Himalia
orbit_AscendingNode=62.74369092219344
orbit_Eccentricity=0.1341186732710830
orbit_Epoch=2454619.50000
orbit_Inclination=29.52734924407240
orbit_LongOfPericenter=48.3391873600156000
orbit_MeanLongitude=202.0757439998000000
orbit_Period=248.3161934941932
orbit_SemiMajorAxis=11388576.13393731
orbit_visualization_period=248.3161934941932
parent=Jupiter
radius=85
rot_equator_ascending_node=213.7
rot_obliquity=15.5
rot_periode=0.4
rot_rotation_offset=14.9
tex_halo=star16x16.png
tex_map=lune.png
type=moon

[hydra]
albedo=0.195
color=1., 1., 1.
coord_func=ell_orbit
halo=true
lighting=true
name=Hydra (moon)
orbit_AscendingNode=227.388734431
orbit_Eccentricity=0.004288704
orbit_Epoch=2455767.5
orbit_Inclination=0.212
orbit_LongOfPericenter=375.299780216
orbit_Period=-38.502879281
orbit_SemiMajorAxis=64749
orbit_visualization_period=38.502879281
parent=Pluto
radius=114
rot_obliquity=1.0
rot_periode=38.502879281
rot_rotation_offset=0.0
tex_halo=star16x16.png
tex_map=lune.png
type=moon

[hyperion]
PrecessionRate=51.43
RotationPeriod=120
albedo=0.3
color=1., 0.914, 0.835
coord_func=hyperion_special
halo=true
lighting=true
name=Hyperion
orbit_visualization_period=21.276609
parent=Saturn
radius=141.5
rot_equator_ascending_node=145
rot_obliquity=61.
rot_periode=???
rot_rotation_offset=318.9
tex_halo=star16x16.png
tex_map=hyperion.png
type=moon

[iapetus]
albedo=0.2
color=1., 0.973, 0.948
coord_func=iapetus_special
halo=true
lighting=true
name=Iapetus
orbit_visualization_period=79.33
parent=Saturn
radius=718.
rot_equator_ascending_node=213.7
rot_obliquity=15.5
rot_periode=1903.940390
rot_rotation_offset=223.73
tex_halo=star16x16.png
tex_map=iapetus.png
type=moon

[io]
albedo=0.61
atmosphere=1
color=1., .885, .598
coord_func=io_special
halo=true
lighting=true
name=Io
orbit_visualization_period=1.769
parent=Jupiter
radius=1821.3
rot_obliquity=0.0
rot_periode=42.45930719
rot_rotation_offset=220.35
tex_halo=star16x16.png
tex_map=io.png
type=moon

[jupiter]
albedo=0.51
atmosphere=1
color=1., 0.983, 0.934
coord_func=jupiter_special
halo=true
lighting=true
name=Jupiter
oblateness=0.064874
orbit_visualization_period=4331.87
parent=Sun
radius=71492
rot_equator_ascending_node=-22.203
rot_obliquity=2.222461
rot_periode=9.92491
rot_pole_de=64.49
rot_pole_ra=268.05
rot_rotation_offset=-1 # use JupiterGRS patch
tex_halo=star16x16.png
tex_map=jupiter.png #texture courtesy of Bj\xf6rn J\xf3nsson
type=planet

[laomedeia]
albedo=0.06
color=1., 0.9, 0.75
coord_func=ell_orbit
halo=true
lighting=true
name=Laomedeia
orbit_AscendingNode=33.54920843735481
orbit_Eccentricity=0.3845786604193581
orbit_Epoch=2454619.50000
orbit_Inclination=9.744680906468446
orbit_LongOfPericenter=159.9138961
orbit_MeanLongitude=305.1617125
orbit_Period=3185.068758279590
orbit_SemiMajorAxis=23580349.09459848
orbit_visualization_period=3185.068758279590
parent=Neptune
radius=42
rot_equator_ascending_node=213.7
rot_obliquity=15.5
rot_periode=3185.068758279590
rot_rotation_offset=14.9
tex_halo=star16x16.png
tex_map=lune.png
type=moon

[larissa]
albedo=0.06
color=1., 0.9, 0.75
coord_func=ell_orbit
halo=true
lighting=true
name=Larissa
orbit_AscendingNode=12.97300037402120
orbit_Eccentricity=0.001628627055845952
orbit_Epoch=2454619.50000
orbit_Inclination=0.3672114864338289
orbit_LongOfPericenter=342.2125629
orbit_MeanLongitude=38.69785092
orbit_Period=0.5553035150611498
orbit_SemiMajorAxis=73590.98861163890
orbit_visualization_period=0.5553035150611498
parent=Neptune
radius=79
rot_equator_ascending_node=213.7
rot_obliquity=15.5
rot_periode=13.3272843614675952
rot_rotation_offset=120.57
tex_halo=star16x16.png
tex_map=lune.png
type=moon

[leda]
albedo=0.03
color=1., 0.9, 0.75
coord_func=ell_orbit
halo=true
lighting=true
name=Leda
orbit_AscendingNode=205.5729208452909
orbit_Eccentricity=0.1849972068029340
orbit_Epoch=2454619.50000
orbit_Inclination=28.26096889279179
orbit_LongOfPericenter=133.1912542293990000
orbit_MeanLongitude=276.4502233853120000
orbit_Period=242.2566769525344
orbit_SemiMajorAxis=11202541.76637748
orbit_visualization_period=242.2566769525344
parent=Jupiter
radius=5
rot_equator_ascending_node=213.7
rot_obliquity=15.5
rot_periode=242.2566769525344
rot_rotation_offset=14.9
tex_halo=star16x16.png
tex_map=lune.png
type=moon

[lysithea]
albedo=0.03
color=1., 0.9, 0.75
coord_func=ell_orbit
halo=true
lighting=true
name=Lysithea
orbit_AscendingNode=0.2875682490706584
orbit_Eccentricity=0.1281232102397132
orbit_Epoch=2454619.50000
orbit_Inclination=24.59040357245339
orbit_LongOfPericenter=78.9389828310578000
orbit_MeanLongitude=337.5492383800380000
orbit_Period=259.0469768771512
orbit_SemiMajorAxis=11714356.05630203
orbit_visualization_period=259.0469768771512
parent=Jupiter
radius=12
rot_equator_ascending_node=213.7
rot_obliquity=15.5
rot_periode=259.0469768771512
rot_rotation_offset=14.9
tex_halo=star16x16.png
tex_map=lune.png
type=moon

[mars]
albedo=0.150
atmosphere=1
color=1., 0.768, 0.504
coord_func=mars_special
halo=true
landscape=mars
lighting=true
name=Mars
oblateness=0.0064763
orbit_visualization_period=686.971
parent=Sun
radius=3397
rot_equator_ascending_node=82.91
rot_obliquity=26.72
rot_periode=24.622962
rot_pole_de=52.88212
rot_pole_ra=317.6725
rot_rotation_offset=136.005
tex_halo=star16x16.png
tex_map=mars.png
type=planet

[mercury]
albedo=0.06
color=1.0, 0.964, 0.914
coord_func=mercury_special
halo=true
lighting=true
name=Mercury
orbit_visualization_period=87.97
parent=Sun
radius=2439.7
rot_equator_ascending_node=48.42
rot_obliquity=7.01
rot_periode=1407.509405
rot_pole_de=61.45
rot_pole_ra=281.001
rot_rotation_offset=291.20
tex_halo=star16x16.png
tex_map=mercury.png
type=planet

[metis]
albedo=0.07
color=1., 0.9, 0.75
coord_func=ell_orbit
halo=true
lighting=true
name=Metis (moon)
orbit_AscendingNode=99.25512108544794
orbit_Eccentricity=0.007934699878209682
orbit_Epoch=2454619.50000
orbit_Inclination=0.06061013894618508
orbit_LongOfPericenter=114.5010069923130000
orbit_MeanLongitude=113.3620494967750000
orbit_Period=0.2992264694514691
orbit_SemiMajorAxis=128963.2809817095
orbit_visualization_period=0.2992264694514691
parent=Jupiter
radius=20
rot_equator_ascending_node=213.7
rot_obliquity=15.5
rot_periode=7.1814352668352584
rot_rotation_offset=162.41
tex_halo=star16x16.png
tex_map=lune.png
type=moon

[mimas]
albedo=0.5
color=1., 0.983, 0.972
coord_func=mimas_special
halo=true
lighting=true
name=Mimas
orbit_visualization_period=0.9424218
parent=Saturn
radius=198.6
rot_equator_ascending_node=137.8
rot_obliquity=1.5
rot_periode=22.61812344
rot_rotation_offset=126.39
tex_halo=star16x16.png
tex_map=mimas.png
type=moon

[miranda]
albedo=0.32
color=1., 0.902, 0.871
coord_func=miranda_special
halo=true
lighting=true
name=Miranda
orbit_visualization_period=1.413
parent=Uranus
radius=235.8
rot_obliquity=0.0
rot_periode=-33.92350158
rot_rotation_offset=35.78
tex_halo=star16x16.png
tex_map=miranda.png
type=moon

[moon]
albedo=0.12
color=1., 0.986, 0.968
coord_func=lunar_special
halo=true
landscape=moon
lighting=true
name=Moon
normals_map=moon_normals.png
orbit_visualization_period=27.321582
parent=Earth
radius=1737.4
rot_equator_ascending_node=0
rot_obliquity=23.45
rot_periode=655.7198811
rot_rotation_offset=38
tex_halo=halo.png
tex_map=moon.png
type=moon

[naiad]
albedo=0.06
color=1., 0.9, 0.75
coord_func=ell_orbit
halo=true
lighting=true
name=Naiad
orbit_AscendingNode=171.8967736635123
orbit_Eccentricity=0.001713269683018113
orbit_Epoch=2454619.50000
orbit_Inclination=4.188510303034086
orbit_LongOfPericenter=224.2441011
orbit_MeanLongitude=263.8597893
orbit_Period=0.2952080157587180
orbit_SemiMajorAxis=48293.62282849867
orbit_visualization_period=0.2952080157587180
parent=Neptune
radius=170
rot_equator_ascending_node=213.7
rot_obliquity=15.5
rot_periode=7.084992378209232
rot_rotation_offset=317.27
tex_halo=star16x16.png
tex_map=lune.png
type=moon

[neptune]
albedo=0.62
atmosphere=1
color=0.44, 0.582, 1.
coord_func=neptune_special
halo=true
lighting=true
name=Neptune
oblateness=0.017081
orbit_visualization_period=60189
parent=Sun
radius=24764
ring_inner_size=40900
ring_outer_size=62932
rings=true
rot_periode=16.11
rot_pole_de=42.95
rot_pole_ra=299.347
rot_rotation_offset=228.65
tex_halo=star16x16.png
tex_map=neptune.png
tex_ring=neptune_rings.png #texture from Celestia
type=planet

